{"type": "FeatureCollection", "features": [ {"type": "Feature", "properties": {"norad_id": 34400, "name": "COSMOS 2251 DEB", "group": "cosmos-2251-debris", "lat": -52.96210350598352, "lon": -133.30964013275172, "alt_km": 410.27178728168474, "timestamp": "2025-12-12T07:43:20.909947+00:00", "meta": {"OBJECT_NAME": "COSMOS 2251 DEB", "OBJECT_ID": "1993-036QR", "EPOCH": "2025-12-11T12:09:23.149152", "MEAN_MOTION": 15.52749507, "ECCENTRICITY": 0.00054884, "INCLINATION": 73.9659, "RA_OF_ASC_NODE": 26.0904, "ARG_OF_PERICENTER": 268.2155, "MEAN_ANOMALY": 91.8431, "EPHEMERIS_TYPE": 0, "CLASSIFICATION_TYPE": "U", "NORAD_CAT_ID": 34400, "ELEMENT_SET_NO": 999, "REV_AT_EPOCH": 89955, "BSTAR": 0.0060841941, "MEAN_MOTION_DOT": 0.0039582, "MEAN_MOTION_DDOT": 0}, "tle": {"line1": "1 34400U 93036QR  25345.50651793  .00395820  00000+0  60842-2 0  9995", "line2": "2 34400  73.9659  26.0904 0005488 268.2155  91.8431 15.52749507899554"}}, "geometry": {"type": "Point", "coordinates": [-133.30964013275172, -52.96210350598352]}}, {"type": "Feature", "properties": {"norad_id": 34409, "name": "COSMOS 2251 DEB", "group": "cosmos-2251-debris", "lat": -68.03826876254838, "lon": -97.48559991204887, "alt_km": 712.6381591049276, "timestamp": "2025-12-12T07:43:20.909957+00:00", "meta": {"OBJECT_NAME": "COSMOS 2251 DEB", "OBJECT_ID": "1993-036RA", "EPOCH": "2025-12-11T22:27:13.227264", "MEAN_MOTION": 14.58024093, "ECCENTRICITY": 0.0079805, "INCLINATION": 74.0641, "RA_OF_ASC_NODE": 308.3648, "ARG_OF_PERICENTER": 22.8974, "MEAN_ANOMALY": 37.0595, "EPHEMERIS_TYPE": 0, "CLASSIFICATION_TYPE": "U", "NORAD_CAT_ID": 34409, "ELEMENT_SET_NO": 999, "REV_AT_EPOCH": 89181, "BSTAR": 0.00043693417, "MEAN_MOTION_DOT": 2.068e-05, "MEAN_MOTION_DDOT": 0}, "tle": {"line1": "1 34409U 93036RA  25345.93556976  .00002068  00000+0  43693-3 0  9993", "line2": "2 34409  74.0641 308.3648 0079805  22.8974  37.0595 14.58024093891819"}}, "geometry": {"type": "Point", "coordinates": [-97.48559991204887, -68.03826876254838]}}, {"type": "Feature", "properties": {"norad_id": 34410, "name": "COSMOS 2251 DEB", "group": "cosmos-2251-debris", "lat": -50.378267395151894, "lon": 103.27792482301666, "alt_km": 525.2255417692068, "timestamp": "2025-12-12T07:43:20.909968+00:00", "meta": {"OBJECT_NAME": "COSMOS 2251 DEB", "OBJECT_ID": "1993-036RB", "EPOCH": "2025-12-11T18:10:38.633376", "MEAN_MOTION": 15.18782255, "ECCENTRICITY": 0.00216446, "INCLINATION": 73.7384, "RA_OF_ASC_NODE": 263.8351, "ARG_OF_PERICENTER": 105.5688, "MEAN_ANOMALY": 282.954, "EPHEMERIS_TYPE": 0, "CLASSIFICATION_TYPE": "U", "NORAD_CAT_ID": 34410, "ELEMENT_SET_NO": 999, "REV_AT_EPOCH": 89759, "BSTAR": 0.003039159, "MEAN_MOTION_DOT": 0.00064129, "MEAN_MOTION_DDOT": 0}, "tle": {"line1": "1 34410U 93036RB  25345.75739159  .00064129  00000+0  30392-2 0  9998", "line2": "2 34410  73.7384 263.8351 0021644 105.5688 282.9540 15.18782255897596"}}, "geometry": {"type": "Point", "coordinates": [103.27792482301666, -50.378267395151894]}}, {"type": "Feature", "properties": {"norad_id": 34412, "name": "COSMOS 2251 DEB", "group": "cosmos-2251-debris", "lat": 24.360285387071066, "lon": 137.90585316575715, "alt_km": 740.639499495961, "timestamp": "2025-12-12T07:43:20.909980+00:00", "meta": {"OBJECT_NAME": "COSMOS 2251 DEB", "OBJECT_ID": "1993-036RD", "EPOCH": "2025-12-11T16:05:50.379936", "MEAN_MOTION": 14.47112817, "ECCENTRICITY": 0.01871429, "INCLINATION": 73.9486, "RA_OF_ASC_NODE": 326.6199, "ARG_OF_PERICENTER": 61.9505, "MEAN_ANOMALY": 300.0438, "EPHEMERIS_TYPE": 0, "CLASSIFICATION_TYPE": "U", "NORAD_CAT_ID": 34412, "ELEMENT_SET_NO": 999, "REV_AT_EPOCH": 87635, "BSTAR": 0.0019054948, "MEAN_MOTION_DOT": 8.634e-05, "MEAN_MOTION_DDOT": 0}, "tle": {"line1": "1 34412U 93036RD  25345.67072199  .00008634  00000+0  19055-2 0  9997", "line2": "2 34412  73.9486 326.6199 0187142  61.9505 300.0438 14.47112817876351"}}, "geometry": {"type": "Point", "coordinates": [137.90585316575715, 24.360285387071066]}}, {"type": "Feature", "properties": {"norad_id": 34413, "name": "COSMOS 2251 DEB", "group": "cosmos-2251-debris", "lat": -46.84533820736665, "lon": -112.14474082259154, "alt_km": 745.3897113702105, "timestamp": "2025-12-12T07:43:20.909991+00:00", "meta": {"OBJECT_NAME": "COSMOS 2251 DEB", "OBJECT_ID": "1993-036RE", "EPOCH": "2025-12-11T05:46:30.093312", "MEAN_MOTION": 14.29078941, "ECCENTRICITY": 0.00908752, "INCLINATION": 74.031, "RA_OF_ASC_NODE": 267.6007, "ARG_OF_PERICENTER": 344.3301, "MEAN_ANOMALY": 166.981, "EPHEMERIS_TYPE": 0, "CLASSIFICATION_TYPE": "U", "NORAD_CAT_ID": 34413, "ELEMENT_SET_NO": 999, "REV_AT_EPOCH": 87109, "BSTAR": 0.0024034273, "MEAN_MOTION_DOT": 6.346e-05, "MEAN_MOTION_DDOT": 0}, "tle": {"line1": "1 34413U 93036RE  25345.24062608  .00006346  00000+0  24034-2 0  9996", "line2": "2 34413  74.0310 267.6007 0090875 344.3301 166.9810 14.29078941871098"}}, "geometry": {"type": "Point", "coordinates": [-112.14474082259154, -46.84533820736665]}}, {"type": "Feature", "properties": {"norad_id": 34420, "name": "COSMOS 2251 DEB", "group": "cosmos-2251-debris", "lat": -13.255213644808986, "lon": 100.90075597749446, "alt_km": 708.0577530427272, "timestamp": "2025-12-12T07:43:20.910001+00:00", "meta": {"OBJECT_NAME": "COSMOS 2251 DEB", "OBJECT_ID": "1993-036RM", "EPOCH": "2025-12-11T19:25:06.513888", "MEAN_MOTION": 14.68293392, "ECCENTRICITY": 0.01066806, "INCLINATION": 74.0335, "RA_OF_ASC_NODE": 105.7591, "ARG_OF_PERICENTER": 227.1205, "MEAN_ANOMALY": 289.3763, "EPHEMERIS_TYPE": 0, "CLASSIFICATION_TYPE": "U", "NORAD_CAT_ID": 34420, "ELEMENT_SET_NO": 999, "REV_AT_EPOCH": 89756, "BSTAR": 0.00040415036, "MEAN_MOTION_DOT": 2.507e-05, "MEAN_MOTION_DDOT": 0}, "tle": {"line1": "1 34420U 93036RM  25345.80910317  .00002507  00000+0  40415-3 0  9992", "line2": "2 34420  74.0335 105.7591 0106680 227.1205 289.3763 14.68293392897565"}}, "geometry": {"type": "Point", "coordinates": [100.90075597749446, -13.255213644808986]}}, {"type": "Feature", "properties": {"norad_id": 34425, "name": "COSMOS 2251 DEB", "group": "cosmos-2251-debris", "lat": 71.99963745508975, "lon": 117.19143757043902, "alt_km": 682.1345245467764, "timestamp": "2025-12-12T07:43:20.910012+00:00", "meta": {"OBJECT_NAME": "COSMOS 2251 DEB", "OBJECT_ID": "1993-036RS", "EPOCH": "2025-12-11T14:55:40.822464", "MEAN_MOTION": 14.62119069, "ECCENTRICITY": 0.00249107, "INCLINATION": 74.0201, "RA_OF_ASC_NODE": 56.6586, "ARG_OF_PERICENTER": 183.4495, "MEAN_ANOMALY": 176.6504, "EPHEMERIS_TYPE": 0, "CLASSIFICATION_TYPE": "U", "NORAD_CAT_ID": 34425, "ELEMENT_SET_NO": 999, "REV_AT_EPOCH": 88724, "BSTAR": 0.0009325549, "MEAN_MOTION_DOT": 4.682e-05, "MEAN_MOTION_DDOT": 0}, "tle": {"line1": "1 34425U 93036RS  25345.62200026  .00004682  00000+0  93255-3 0  9992", "line2": "2 34425  74.0201  56.6586 0024910 183.4495 176.6504 14.62119069887247"}}, "geometry": {"type": "Point", "coordinates": [117.19143757043902, 71.99963745508975]}}, {"type": "Feature", "properties": {"norad_id": 34429, "name": "COSMOS 2251 DEB", "group": "cosmos-2251-debris", "lat": 17.877450755607487, "lon": 174.24339721570524, "alt_km": 437.3784212887558, "timestamp": "2025-12-12T07:43:20.910022+00:00", "meta": {"OBJECT_NAME": "COSMOS 2251 DEB", "OBJECT_ID": "1993-036RW", "EPOCH": "2025-12-11T22:49:36.140736", "MEAN_MOTION": 15.41156412, "ECCENTRICITY": 0.00072851, "INCLINATION": 73.9701, "RA_OF_ASC_NODE": 169.7275, "ARG_OF_PERICENTER": 11.6809, "MEAN_ANOMALY": 111.3693, "EPHEMERIS_TYPE": 0, "CLASSIFICATION_TYPE": "U", "NORAD_CAT_ID": 34429, "ELEMENT_SET_NO": 999, "REV_AT_EPOCH": 89436, "BSTAR": 0.0055961645, "MEAN_MOTION_DOT": 0.00239612, "MEAN_MOTION_DDOT": 0}, "tle": {"line1": "1 34429U 93036RW  25345.95111274  .00239612  00000+0  55962-2 0  9993", "line2": "2 34429  73.9701 169.7275 0007285  11.6809 111.3693 15.41156412894369"}}, "geometry": {"type": "Point", "coordinates": [174.24339721570524, 17.877450755607487]}}, {"type": "Feature", "properties": {"norad_id": 34430, "name": "COSMOS 2251 DEB", "group": "cosmos-2251-debris", "lat": -69.30419977502692, "lon": 173.32480616179726, "alt_km": 786.1471162839207, "timestamp": "2025-12-12T07:43:20.910033+00:00", "meta": {"OBJECT_NAME": "COSMOS 2251 DEB", "OBJECT_ID": "1993-036RX", "EPOCH": "2025-12-11T23:51:39.783744", "MEAN_MOTION": 14.39628936, "ECCENTRICITY": 0.00603031, "INCLINATION": 74.0523, "RA_OF_ASC_NODE": 304.7377, "ARG_OF_PERICENTER": 14.553, "MEAN_ANOMALY": 345.7343, "EPHEMERIS_TYPE": 0, "CLASSIFICATION_TYPE": "U", "NORAD_CAT_ID": 34430, "ELEMENT_SET_NO": 999, "REV_AT_EPOCH": 87944, "BSTAR": 0.00082628432, "MEAN_MOTION_DOT": 2.613e-05, "MEAN_MOTION_DDOT": 0}, "tle": {"line1": "1 34430U 93036RX  25345.99421046  .00002613  00000+0  82628-3 0  9999", "line2": "2 34430  74.0523 304.7377 0060303  14.5530 345.7343 14.39628936879440"}}, "geometry": {"type": "Point", "coordinates": [173.32480616179726, -69.30419977502692]}}, {"type": "Feature", "properties": {"norad_id": 34431, "name": "COSMOS 2251 DEB", "group": "cosmos-2251-debris", "lat": 4.181911272841614, "lon": -5.239685555963532, "alt_km": 750.2684123280551, "timestamp": "2025-12-12T07:43:20.910044+00:00", "meta": {"OBJECT_NAME": "COSMOS 2251 DEB", "OBJECT_ID": "1993-036RY", "EPOCH": "2025-12-11T22:30:12.236832", "MEAN_MOTION": 14.28769376, "ECCENTRICITY": 0.00682951, "INCLINATION": 74.0747, "RA_OF_ASC_NODE": 176.6516, "ARG_OF_PERICENTER": 162.5707, "MEAN_ANOMALY": 197.781, "EPHEMERIS_TYPE": 0, "CLASSIFICATION_TYPE": "U", "NORAD_CAT_ID": 34431, "ELEMENT_SET_NO": 999, "REV_AT_EPOCH": 87131, "BSTAR": 0.00096958465, "MEAN_MOTION_DOT": 2.479e-05, "MEAN_MOTION_DDOT": 0}, "tle": {"line1": "1 34431U 93036RY  25345.93764163  .00002479  00000+0  96958-3 0  9995", "line2": "2 34431  74.0747 176.6516 0068295 162.5707 197.7810 14.28769376871312"}}, "geometry": {"type": "Point", "coordinates": [-5.239685555963532, 4.181911272841614]}}]}